sat06148
1 06148U 72062A   20046.84856422  .00000039  00000-0  21801-4 0  9995
2 06148  82.9654 223.7607 0009668 194.1993 276.7927 13.81797084394045
